STARLINK-34092          
1 63904U 25095Q   26067.37483049  .00020298  00000+0  74418-3 0  9999
2 63904  43.0048 183.9185 0004049 289.7092  70.3323 15.27616990 47579
2025-155V               
1 64895U 25155V   26068.85787115  .00013705  00000+0  51002-3 0  9990
2 64895  97.4485  37.2490 0008035 152.8264 207.3397 15.27583301 65579
